[{"OBJECT_NAME":"GOKTURK 2","OBJECT_ID":"2012-073A","EPOCH":"2026-03-09T22:26:02.222880","MEAN_MOTION":14.75437858,"ECCENTRICITY":0.00010704,"INCLINATION":97.6883,"RA_OF_ASC_NODE":271.3014,"ARG_OF_PERICENTER":59.6503,"MEAN_ANOMALY":300.4813,"EPHEMERIS_TYPE":0,"CLASSIFICATION_TYPE":"U","NORAD_CAT_ID":39030,"ELEMENT_SET_NO":999,"REV_AT_EPOCH":70987,"BSTAR":0.00022394552,"MEAN_MOTION_DOT":1.475e-5,"MEAN_MOTION_DDOT":0},{"OBJECT_NAME":"PISAT","OBJECT_ID":"2016-059B","EPOCH":"2026-03-09T23:04:32.673792","MEAN_MOTION":14.68774579,"ECCENTRICITY":0.00295599,"INCLINATION":97.8192,"RA_OF_ASC_NODE":73.6916,"ARG_OF_PERICENTER":159.8662,"MEAN_ANOMALY":200.3717,"EPHEMERIS_TYPE":0,"CLASSIFICATION_TYPE":"U","NORAD_CAT_ID":41784,"ELEMENT_SET_NO":999,"REV_AT_EPOCH":50517,"BSTAR":0.00024765748,"MEAN_MOTION_DOT":1.407e-5,"MEAN_MOTION_DDOT":0}]
